QIANFAN-49              
1 62250U 24232P   25289.58839392  .00000154  00000+0  21947-3 0  9996
2 62250  89.0025  46.9890 0013879   7.6934 352.4428 13.50979250 60122
QIANFAN-50              
1 62251U 24232Q   25289.61309097  .00000158  00000+0  22556-3 0  9996
2 62251  89.0029  46.9916 0015559   8.1958 351.9444 13.50979792 60151
QIANFAN-51              
1 62252U 24232R   25289.59663969  .00000135  00000+0  19028-3 0  9990
2 62252  89.0024  46.9906 0013201  13.2518 346.8977 13.50976601 60146
QIANFAN-52              
1 62253U 24232S   25289.62539397  .00000142  00000+0  20127-3 0  9992
2 62253  89.0019  46.8635 0014946   4.2629 355.8647 13.50979164 60230
QIANFAN-53              
1 62254U 24232T   25289.60491243  .00000136  00000+0  19257-3 0  9993
2 62254  89.0028  46.9658 0013865   5.9783 354.1531 13.50974844 60194
QIANFAN-54              
1 62255U 24232U   25289.57194468  .00000140  00000+0  19855-3 0  9998
2 62255  89.0020  46.6526 0003337  69.5551 290.5958 13.50976974 91691
QIANFAN-55              
1 62785U 25016A   25289.59802903  .00000072  00000+0  92340-4 0  9994
2 62785  88.9740 109.1122 0018128 148.7977 211.4254 13.50967682 39474
QIANFAN-56              
1 62786U 25016B   25289.61448772  .00000083  00000+0  10937-3 0  9991
2 62786  88.9713 108.9623 0016730 150.6489 209.5605 13.50976005 39528
